[{"OBJECT_NAME":"COSMO-SKYMED 3","OBJECT_ID":"2008-054A","EPOCH":"2026-03-09T22:03:15.183936","MEAN_MOTION":15.06259488,"ECCENTRICITY":0.00143526,"INCLINATION":97.8419,"RA_OF_ASC_NODE":285.8111,"ARG_OF_PERICENTER":240.3641,"MEAN_ANOMALY":119.6157,"EPHEMERIS_TYPE":0,"CLASSIFICATION_TYPE":"U","NORAD_CAT_ID":33412,"ELEMENT_SET_NO":999,"REV_AT_EPOCH":94199,"BSTAR":0.00061875413,"MEAN_MOTION_DOT":9.042e-5,"MEAN_MOTION_DDOT":0},{"OBJECT_NAME":"STARLINK-35359","OBJECT_ID":"2025-211U","EPOCH":"2026-03-09T16:12:16.598304","MEAN_MOTION":15.05651823,"ECCENTRICITY":0.00015534,"INCLINATION":97.6025,"RA_OF_ASC_NODE":114.1122,"ARG_OF_PERICENTER":125.7368,"MEAN_ANOMALY":234.4004,"EPHEMERIS_TYPE":0,"CLASSIFICATION_TYPE":"U","NORAD_CAT_ID":65670,"ELEMENT_SET_NO":999,"REV_AT_EPOCH":2704,"BSTAR":0.00026843515,"MEAN_MOTION_DOT":3.815e-5,"MEAN_MOTION_DDOT":0}]
